CCSDS_OMM_VERS = 2.0
CREATION_DATE  = 
ORIGINATOR     = 

OBJECT_NAME    = CZ-2D R/B
OBJECT_ID      = 2005-024B
CENTER_NAME    = EARTH
REF_FRAME      = TEME
TIME_SYSTEM    = UTC
MEAN_ELEMENT_THEORY = SGP/SGP4

EPOCH          = 2025-12-01T13:45:22.187808
MEAN_MOTION    = 15.52368202
ECCENTRICITY   = .0007145
INCLINATION    = 97.3634
RA_OF_ASC_NODE = 342.7353
ARG_OF_PERICENTER = 41.1469
MEAN_ANOMALY   = 319.0322

EPHEMERIS_TYPE = 0
CLASSIFICATION_TYPE = U
NORAD_CAT_ID   = 28738
ELEMENT_SET_NO = 999
REV_AT_EPOCH   = 12452
BSTAR          = .40854E-3
MEAN_MOTION_DOT = .24871E-3
MEAN_MOTION_DDOT = 0

CCSDS_OMM_VERS = 2.0
CREATION_DATE  = 
ORIGINATOR     = 

OBJECT_NAME    = ALOS (DAICHI)
OBJECT_ID      = 2006-002A
CENTER_NAME    = EARTH
REF_FRAME      = TEME
TIME_SYSTEM    = UTC
MEAN_ELEMENT_THEORY = SGP/SGP4

EPOCH          = 2025-12-01T20:50:50.381088
MEAN_MOTION    = 14.69431359
ECCENTRICITY   = .0000724
INCLINATION    = 98.1075
RA_OF_ASC_NODE = 287.4339
ARG_OF_PERICENTER = 99.3340
MEAN_ANOMALY   = 260.7947

EPHEMERIS_TYPE = 0
CLASSIFICATION_TYPE = U
NORAD_CAT_ID   = 28931
ELEMENT_SET_NO = 999
REV_AT_EPOCH   = 5911
BSTAR          = .29733E-3
MEAN_MOTION_DOT = .1711E-4
MEAN_MOTION_DDOT = 0

CCSDS_OMM_VERS = 2.0
CREATION_DATE  = 
ORIGINATOR     = 

OBJECT_NAME    = H-2A R/B
OBJECT_ID      = 2006-002B
CENTER_NAME    = EARTH
REF_FRAME      = TEME
TIME_SYSTEM    = UTC
MEAN_ELEMENT_THEORY = SGP/SGP4

EPOCH          = 2025-12-01T19:36:29.442816
MEAN_MOTION    = 15.14213033
ECCENTRICITY   = .005452
INCLINATION    = 98.2307
RA_OF_ASC_NODE = 109.6764
ARG_OF_PERICENTER = 213.4847
MEAN_ANOMALY   = 146.2931

EPHEMERIS_TYPE = 0
CLASSIFICATION_TYPE = U
NORAD_CAT_ID   = 28932
ELEMENT_SET_NO = 999
REV_AT_EPOCH   = 7961
BSTAR          = .57625E-3
MEAN_MOTION_DOT = .10848E-3
MEAN_MOTION_DDOT = 0

CCSDS_OMM_VERS = 2.0
CREATION_DATE  = 
ORIGINATOR     = 

OBJECT_NAME    = RESURS-DK 1
OBJECT_ID      = 2006-021A
CENTER_NAME    = EARTH
REF_FRAME      = TEME
TIME_SYSTEM    = UTC
MEAN_ELEMENT_THEORY = SGP/SGP4

EPOCH          = 2025-12-01T20:22:52.938048
MEAN_MOTION    = 15.12058271
ECCENTRICITY   = .0007821
INCLINATION    = 69.9322
RA_OF_ASC_NODE = 129.9787
ARG_OF_PERICENTER = 266.5808
MEAN_ANOMALY   = 93.4463

EPHEMERIS_TYPE = 0
CLASSIFICATION_TYPE = U
NORAD_CAT_ID   = 29228
ELEMENT_SET_NO = 999
REV_AT_EPOCH   = 7273
BSTAR          = .20679E-3
MEAN_MOTION_DOT = .346E-4
MEAN_MOTION_DDOT = 0

CCSDS_OMM_VERS = 2.0
CREATION_DATE  = 
ORIGINATOR     = 

OBJECT_NAME    = CZ-4B R/B
OBJECT_ID      = 2006-046C
CENTER_NAME    = EARTH
REF_FRAME      = TEME
TIME_SYSTEM    = UTC
MEAN_ELEMENT_THEORY = SGP/SGP4

EPOCH          = 2025-12-01T16:17:18.390912
MEAN_MOTION    = 15.15691655
ECCENTRICITY   = .0032712
INCLINATION    = 97.5756
RA_OF_ASC_NODE = 15.8476
ARG_OF_PERICENTER = 246.0588
MEAN_ANOMALY   = 113.7217

EPHEMERIS_TYPE = 0
CLASSIFICATION_TYPE = U
NORAD_CAT_ID   = 29507
ELEMENT_SET_NO = 999
REV_AT_EPOCH   = 4519
BSTAR          = .28427E-3
MEAN_MOTION_DOT = .5415E-4
MEAN_MOTION_DDOT = 0

CCSDS_OMM_VERS = 2.0
CREATION_DATE  = 
ORIGINATOR     = 

OBJECT_NAME    = CZ-2C R/B
OBJECT_ID      = 2007-010B
CENTER_NAME    = EARTH
REF_FRAME      = TEME
TIME_SYSTEM    = UTC
MEAN_ELEMENT_THEORY = SGP/SGP4

EPOCH          = 2025-12-01T19:09:52.409664
MEAN_MOTION    = 14.20202063
ECCENTRICITY   = .0058399
INCLINATION    = 98.3971
RA_OF_ASC_NODE = 89.0002
ARG_OF_PERICENTER = 217.9927
MEAN_ANOMALY   = 141.7124

EPHEMERIS_TYPE = 0
CLASSIFICATION_TYPE = U
NORAD_CAT_ID   = 31114
ELEMENT_SET_NO = 999
REV_AT_EPOCH   = 96582
BSTAR          = .98552E-4
MEAN_MOTION_DOT = .173E-5
MEAN_MOTION_DDOT = 0

CCSDS_OMM_VERS = 2.0
CREATION_DATE  = 
ORIGINATOR     = 

OBJECT_NAME    = COSMO-SKYMED 1
OBJECT_ID      = 2007-023A
CENTER_NAME    = EARTH
REF_FRAME      = TEME
TIME_SYSTEM    = UTC
MEAN_ELEMENT_THEORY = SGP/SGP4

EPOCH          = 2025-12-01T19:35:58.947072
MEAN_MOTION    = 14.95637522
ECCENTRICITY   = .0001531
INCLINATION    = 97.8847
RA_OF_ASC_NODE = 161.1449
ARG_OF_PERICENTER = 84.2781
MEAN_ANOMALY   = 275.8614

EPHEMERIS_TYPE = 0
CLASSIFICATION_TYPE = U
NORAD_CAT_ID   = 31598
ELEMENT_SET_NO = 999
REV_AT_EPOCH   = 27
BSTAR          = .3781E-3
MEAN_MOTION_DOT = .4143E-4
MEAN_MOTION_DDOT = 0

CCSDS_OMM_VERS = 2.0
CREATION_DATE  = 
ORIGINATOR     = 

OBJECT_NAME    = COSMOS 2428
OBJECT_ID      = 2007-029A
CENTER_NAME    = EARTH
REF_FRAME      = TEME
TIME_SYSTEM    = UTC
MEAN_ELEMENT_THEORY = SGP/SGP4

EPOCH          = 2025-12-01T14:57:15.213600
MEAN_MOTION    = 14.12886564
ECCENTRICITY   = .0003053
INCLINATION    = 70.9374
RA_OF_ASC_NODE = 49.2197
ARG_OF_PERICENTER = 40.8258
MEAN_ANOMALY   = 319.3092

EPHEMERIS_TYPE = 0
CLASSIFICATION_TYPE = U
NORAD_CAT_ID   = 31792
ELEMENT_SET_NO = 999
REV_AT_EPOCH   = 95024
BSTAR          = .14379E-5
MEAN_MOTION_DOT = -.45E-6
MEAN_MOTION_DDOT = 0

CCSDS_OMM_VERS = 2.0
CREATION_DATE  = 
ORIGINATOR     = 

OBJECT_NAME    = SL-16 R/B
OBJECT_ID      = 2007-029B
CENTER_NAME    = EARTH
REF_FRAME      = TEME
TIME_SYSTEM    = UTC
MEAN_ELEMENT_THEORY = SGP/SGP4

EPOCH          = 2025-12-01T13:57:40.722912
MEAN_MOTION    = 14.14816548
ECCENTRICITY   = .0002456
INCLINATION    = 70.9771
RA_OF_ASC_NODE = 18.6132
ARG_OF_PERICENTER = 266.2523
MEAN_ANOMALY   = 204.8264

EPHEMERIS_TYPE = 0
CLASSIFICATION_TYPE = U
NORAD_CAT_ID   = 31793
ELEMENT_SET_NO = 999
REV_AT_EPOCH   = 95149
BSTAR          = -.60537E-4
MEAN_MOTION_DOT = -.165E-5
MEAN_MOTION_DDOT = 0

CCSDS_OMM_VERS = 2.0
CREATION_DATE  = 
ORIGINATOR     = 

OBJECT_NAME    = KORONAS-FOTON
OBJECT_ID      = 2009-003A
CENTER_NAME    = EARTH
REF_FRAME      = TEME
TIME_SYSTEM    = UTC
MEAN_ELEMENT_THEORY = SGP/SGP4

EPOCH          = 2025-12-01T14:03:14.683104
MEAN_MOTION    = 15.40816500
ECCENTRICITY   = .001253
INCLINATION    = 82.4327
RA_OF_ASC_NODE = 17.6606
ARG_OF_PERICENTER = 144.5301
MEAN_ANOMALY   = 215.6780

EPHEMERIS_TYPE = 0
CLASSIFICATION_TYPE = U
NORAD_CAT_ID   = 33504
ELEMENT_SET_NO = 999
REV_AT_EPOCH   = 93062
BSTAR          = .31443E-3
MEAN_MOTION_DOT = .12959E-3
MEAN_MOTION_DDOT = 0

CCSDS_OMM_VERS = 2.0
CREATION_DATE  = 
ORIGINATOR     = 

OBJECT_NAME    = CZ-2C R/B
OBJECT_ID      = 2011-030B
CENTER_NAME    = EARTH
REF_FRAME      = TEME
TIME_SYSTEM    = UTC
MEAN_ELEMENT_THEORY = SGP/SGP4

EPOCH          = 2025-12-01T20:22:08.005728
MEAN_MOTION    = 14.80839203
ECCENTRICITY   = .0051858
INCLINATION    = 97.8391
RA_OF_ASC_NODE = 290.1980
ARG_OF_PERICENTER = 310.0122
MEAN_ANOMALY   = 102.8181

EPHEMERIS_TYPE = 0
CLASSIFICATION_TYPE = U
NORAD_CAT_ID   = 37731
ELEMENT_SET_NO = 999
REV_AT_EPOCH   = 77561
BSTAR          = .26143E-3
MEAN_MOTION_DOT = .2009E-4
MEAN_MOTION_DDOT = 0

CCSDS_OMM_VERS = 2.0
CREATION_DATE  = 
ORIGINATOR     = 

OBJECT_NAME    = H-2A R/B
OBJECT_ID      = 2012-025E
CENTER_NAME    = EARTH
REF_FRAME      = TEME
TIME_SYSTEM    = UTC
MEAN_ELEMENT_THEORY = SGP/SGP4

EPOCH          = 2025-12-01T19:01:18.205248
MEAN_MOTION    = 14.94327876
ECCENTRICITY   = .004392
INCLINATION    = 98.4576
RA_OF_ASC_NODE = 290.1807
ARG_OF_PERICENTER = 273.4076
MEAN_ANOMALY   = 86.2118

EPHEMERIS_TYPE = 0
CLASSIFICATION_TYPE = U
NORAD_CAT_ID   = 38341
ELEMENT_SET_NO = 999
REV_AT_EPOCH   = 73359
BSTAR          = .30844E-3
MEAN_MOTION_DOT = .3309E-4
MEAN_MOTION_DDOT = 0

