CZ-2D R/B               
1 28738U 05024B   25335.57317347  .00024871  00000+0  40854-3 0  9999
2 28738  97.3634 342.7353 0007145  41.1469 319.0322 15.52368202124529
ALOS (DAICHI)           
1 28931U 06002A   25335.86863867  .00001711  00000+0  29733-3 0  9997
2 28931  98.1075 287.4339 0000724  99.3340 260.7947 14.69431359 59118
H-2A R/B                
1 28932U 06002B   25335.81700744  .00010848  00000+0  57625-3 0  9999
2 28932  98.2307 109.6764 0054520 213.4847 146.2931 15.14213033 79615
RESURS-DK 1             
1 29228U 06021A   25335.84922382  .00003460  00000+0  20679-3 0  9997
2 29228  69.9322 129.9787 0007821 266.5808  93.4463 15.12058271 72732
CZ-4B R/B               
1 29507U 06046C   25335.67868508  .00005415  00000+0  28427-3 0  9995
2 29507  97.5756  15.8476 0032712 246.0588 113.7217 15.15691655 45198
CZ-2C R/B               
1 31114U 07010B   25335.79852326  .00000173  00000+0  98552-4 0  9991
2 31114  98.3971  89.0002 0058399 217.9927 141.7124 14.20202063965829
COSMO-SKYMED 1          
1 31598U 07023A   25335.81665448  .00004143  00000+0  37810-3 0  9991
2 31598  97.8847 161.1449 0001531  84.2781 275.8614 14.95637522   273
COSMOS 2428             
1 31792U 07029A   25335.62309275 -.00000045  00000+0  14379-5 0  9990
2 31792  70.9374  49.2197 0003053  40.8258 319.3092 14.12886564950246
SL-16 R/B               
1 31793U 07029B   25335.58172133 -.00000165  00000+0 -60537-4 0  9997
2 31793  70.9771  18.6132 0002456 266.2523 204.8264 14.14816548951496
KORONAS-FOTON           
1 33504U 09003A   25335.58558661  .00012959  00000+0  31443-3 0  9992
2 33504  82.4327  17.6606 0012530 144.5301 215.6780 15.40816500930627
CZ-2C R/B               
1 37731U 11030B   25335.84870377  .00002009  00000+0  26143-3 0  9997
2 37731  97.8391 290.1980 0051858 310.0122 102.8181 14.80839203775610
H-2A R/B                
1 38341U 12025E   25335.79257182  .00003309  00000+0  30844-3 0  9994
2 38341  98.4576 290.1807 0043920 273.4076  86.2118 14.94327876733598
